FENGYUN 1C DEB          
1 31227U 99025BLH 17345.83438416  .00001745  00000-0  74669-3 0  9999
2 31227  98.1339  11.3261 0133846 141.3665 219.7183 14.21295807550948
